[{"OBJECT_NAME":"STARLINK-33714","OBJECT_ID":"2025-076N","EPOCH":"2026-03-09T02:37:15.902112","MEAN_MOTION":15.27592859,"ECCENTRICITY":0.00018731,"INCLINATION":43.003,"RA_OF_ASC_NODE":324.8001,"ARG_OF_PERICENTER":263.2654,"MEAN_ANOMALY":96.7985,"EPHEMERIS_TYPE":0,"CLASSIFICATION_TYPE":"U","NORAD_CAT_ID":63581,"ELEMENT_SET_NO":999,"REV_AT_EPOCH":5174,"BSTAR":0.0013362317,"MEAN_MOTION_DOT":0.00036706,"MEAN_MOTION_DDOT":0},{"OBJECT_NAME":"ATLAS F DEB","OBJECT_ID":"1978-047C","EPOCH":"2026-03-09T21:11:22.529760","MEAN_MOTION":12.47735571,"ECCENTRICITY":0.12806369,"INCLINATION":63.6672,"RA_OF_ASC_NODE":306.5337,"ARG_OF_PERICENTER":6.5078,"MEAN_ANOMALY":63.9186,"EPHEMERIS_TYPE":0,"CLASSIFICATION_TYPE":"U","NORAD_CAT_ID":29197,"ELEMENT_SET_NO":999,"REV_AT_EPOCH":74601,"BSTAR":0.094503922,"MEAN_MOTION_DOT":0.00406138,"MEAN_MOTION_DDOT":0}]
